NORAD_CAT_ID,OBJECT_NAME,OBJECT_TYPE,EPOCH,MEAN_MOTION,ECCENTRICITY,INCLINATION,RA_OF_ASC_NODE,ARG_OF_PERICENTER,MEAN_ANOMALY,BSTAR,MEAN_MOTION_DOT,MEAN_MOTION_DDOT,TLE_LINE0,TLE_LINE1,TLE_LINE2,SEMIMAJOR_AXIS,PERIOD,APOGEE,PERIGEE,DECAYED
54103.0,STARLINK-5200,PAYLOAD,2023-10-31 22:21:53,15.08845237,0.0001465,53.2171,213.5109,89.9934,270.1226,0.00024141,3.557e-05,0.0,0 STARLINK-5200,1 54103U 22136BE  23304.93187247  .00003557  00000-0  24141-3 0  9995,2 54103  53.2171 213.5109 0001465  89.9934 270.1226 15.08845237 57479,6917.864,95.437,540.743,538.716,0.0
54103.0,STARLINK-5200,PAYLOAD,2023-11-01 11:04:58,15.08844625,0.0001739,53.2162,211.1313,78.8361,281.2826,0.00019934,2.886e-05,0.0,0 STARLINK-5200,1 54103U 22136BE  23305.46179345  .00002886  00000-0  19934-3 0  9992,2 54103  53.2162 211.1313 0001739  78.8361 281.2826 15.08844625 57553,6917.866,95.437,540.934,538.528,0.0
54103.0,STARLINK-5200,PAYLOAD,2023-11-01 22:12:41,15.08840046,0.0001782,53.2167,209.0493,80.0266,280.0927,7.4292e-05,8.94e-06,0.0,0 STARLINK-5200,1 54103U 22136BE  23305.92547472  .00000894  00000-0  74292-4 0  9999,2 54103  53.2167 209.0493 0001782  80.0266 280.0927 15.08840046 57620,6917.88,95.438,540.978,538.512,0.0
54103.0,STARLINK-5200,PAYLOAD,2023-11-02 01:23:27,15.08843886,0.0001613,53.2176,208.4543,80.9575,279.1599,0.00017757,2.539e-05,0.0,0 STARLINK-5200,1 54103U 22136BE  23306.05795345  .00002539  00000-0  17757-3 0  9998,2 54103  53.2176 208.4543 0001613  80.9575 279.1599 15.08843886 58118,6917.869,95.437,540.849,538.618,0.0
54103.0,STARLINK-5200,PAYLOAD,2023-11-02 10:55:46,15.08844262,0.0001674,53.2172,206.6718,84.1973,275.921,0.0001782,2.549e-05,0.0,0 STARLINK-5200,1 54103U 22136BE  23306.45539391  .00002549  00000-0  17820-3 0  9991,2 54103  53.2172 206.6718 0001674  84.1973 275.9210 15.08844262 57700,6917.867,95.437,540.89,538.574,0.0
54103.0,STARLINK-5200,PAYLOAD,2023-11-02 22:03:28,15.08840341,0.0001617,53.2174,204.5902,87.378,272.7397,8.1298e-05,1.006e-05,0.0,0 STARLINK-5200,1 54103U 22136BE  23306.91907580  .00001006  00000-0  81298-4 0  9999,2 54103  53.2174 204.5902 0001617  87.3780 272.7397 15.08840341 57774,6917.879,95.438,540.863,538.626,0.0
54103.0,STARLINK-5200,PAYLOAD,2023-11-03 02:49:37,15.0885324,0.0001476,53.2165,203.6965,91.408,268.7081,0.00029457,4.405e-05,0.0,0 STARLINK-5200,1 54103U 22136BE  23307.11778966  .00004405  00000-0  29457-3 0  9990,2 54103  53.2165 203.6965 0001476  91.4080 268.7081 15.08853240 58278,6917.84,95.437,540.726,538.684,0.0
54103.0,STARLINK-5200,PAYLOAD,2023-11-03 10:46:33,15.08836775,0.0001601,53.217,202.2096,84.6279,275.4896,3.2545e-05,2.3e-06,0.0,0 STARLINK-5200,1 54103U 22136BE  23307.44899681  .00000230  00000-0  32545-4 0  9999,2 54103  53.2170 202.2096 0001601  84.6279 275.4896 15.08836775 58327,6917.89,95.438,540.863,538.648,0.0
54103.0,STARLINK-5200,PAYLOAD,2023-11-03 21:54:15,15.08837913,0.0001527,53.2177,200.1279,87.9331,272.1836,0.00010059,1.313e-05,0.0,0 STARLINK-5200,1 54103U 22136BE  23307.91267817  .00001313  00000-0  10059-3 0  9999,2 54103  53.2177 200.1279 0001527  87.9331 272.1836 15.08837913 57924,6917.887,95.438,540.808,538.695,0.0
54103.0,STARLINK-5200,PAYLOAD,2023-11-04 02:40:24,15.08846065,0.0001617,53.2167,199.2337,95.2887,264.829,0.00020758,3.018e-05,0.0,0 STARLINK-5200,1 54103U 22136BE  23308.11139471  .00003018  00000-0  20758-3 0  9997,2 54103  53.2167 199.2337 0001617  95.2887 264.8290 15.08846065 58420,6917.862,95.437,540.845,538.608,0.0
54103.0,STARLINK-5200,PAYLOAD,2023-11-04 20:09:39,15.08842803,0.0001512,53.2164,195.9631,104.3696,255.7464,0.00021872,3.195e-05,0.0,0 STARLINK-5200,1 54103U 22136BE  23308.84003857  .00003195  00000-0  21872-3 0  9999,2 54103  53.2164 195.9631 0001512 104.3696 255.7464 15.08842803 58531,6917.872,95.437,540.783,538.691,0.0
54103.0,STARLINK-5200,PAYLOAD,2023-11-04 21:45:02,15.08843865,0.0001481,53.2172,195.6672,96.2802,263.8359,0.00027839,4.146e-05,0.0,0 STARLINK-5200,1 54103U 22136BE  23308.90627840  .00004146  00000-0  27839-3 0  9996,2 54103  53.2172 195.6672 0001481  96.2802 263.8359 15.08843865 58076,6917.869,95.437,540.758,538.709,0.0
54103.0,STARLINK-5200,PAYLOAD,2023-11-05 02:31:11,15.08856727,0.0001455,53.217,194.7719,93.7744,266.3415,0.00069071,0.00010727,0.0,0 STARLINK-5200,1 54103U 22136BE  23309.10499510  .00010727  00000-0  69071-3 0  9996,2 54103  53.2170 194.7719 0001455  93.7744 266.3415 15.08856727 58571,6917.829,95.436,540.701,538.688,0.0
54103.0,STARLINK-5200,PAYLOAD,2023-11-05 20:00:25,15.08857468,0.0001406,53.2171,191.5003,91.3186,268.7967,0.00032882,4.952e-05,0.0,0 STARLINK-5200,1 54103U 22136BE  23309.83362912  .00004952  00000-0  32882-3 0  9994,2 54103  53.2171 191.5003 0001406  91.3186 268.7967 15.08857468 58686,6917.827,95.436,540.665,538.719,0.0
54103.0,STARLINK-5200,PAYLOAD,2023-11-05 23:11:11,15.08888093,0.0001359,53.2165,190.9074,84.6121,275.5026,0.001421,0.00022429,0.0,0 STARLINK-5200,1 54103U 22136BE  23309.96610308  .00022429  00000-0  14210-2 0  9996,2 54103  53.2165 190.9074 0001359  84.6121 275.5026 15.08888093 58232,6917.733,95.435,540.539,538.658,0.0
54103.0,STARLINK-5200,PAYLOAD,2023-11-06 19:51:12,15.08844568,0.000117,53.216,187.0395,111.0672,249.0445,-3.9276e-05,-9.13e-06,0.0,0 STARLINK-5200,1 54103U 22136BE  23310.82722561 -.00000913  00000-0 -39276-4 0  9995,2 54103  53.2160 187.0395 0001170 111.0672 249.0445 15.08844568 58833,6917.866,95.437,540.541,538.922,0.0
54103.0,STARLINK-5200,PAYLOAD,2023-11-06 23:01:59,15.08792062,0.0001129,53.2162,186.4441,65.9716,294.1395,-0.001513,-0.00024255,0.0,0 STARLINK-5200,1 54103U 22136BE  23310.95971419 -.00024255  00000-0 -15130-2 0  9993,2 54103  53.2162 186.4441 0001129  65.9716 294.1395 15.08792062 58386,6918.027,95.441,540.673,539.111,0.0
54103.0,STARLINK-5200,PAYLOAD,2023-11-07 00:37:22,15.0879024,0.0001108,53.216,186.1484,74.739,285.3724,-0.0012599,-0.00020256,0.0,0 STARLINK-5200,1 54103U 22136BE  23311.02596058 -.00020256  00000-0 -12599-2 0  9997,2 54103  53.2160 186.1484 0001108  74.7390 285.3724 15.08790240 58868,6918.032,95.441,540.664,539.131,0.0
54103.0,STARLINK-5200,PAYLOAD,2023-11-07 08:34:19,15.08801309,9.92e-05,53.216,184.6625,88.634,271.4766,-0.00065067,-0.00010617,0.0,0 STARLINK-5200,1 54103U 22136BE  23311.35716930 -.00010617  00000-0 -65067-3 0  9995,2 54103  53.2160 184.6625 0000992  88.6340 271.4766 15.08801309 58914,6917.999,95.44,540.55,539.177,0.0
54103.0,STARLINK-5200,PAYLOAD,2023-11-07 19:42:01,15.08814374,0.0001033,53.2156,182.582,87.4811,272.63,-0.0003237,-5.432e-05,0.0,0 STARLINK-5200,1 54103U 22136BE  23311.82085312 -.00005432  00000-0 -32370-3 0  9990,2 54103  53.2156 182.5820 0001033  87.4811 272.6300 15.08814374 58980,6917.959,95.439,540.538,539.109,0.0
54103.0,STARLINK-5200,PAYLOAD,2023-11-07 22:52:47,15.08824551,0.0001212,53.2157,181.9874,101.9899,258.1229,-2.5069e-05,-6.87e-06,0.0,0 STARLINK-5200,1 54103U 22136BE  23311.95333197 -.00000687  00000-0 -25069-4 0  9996,2 54103  53.2157 181.9874 0001212 101.9899 258.1229 15.08824551 59001,6917.928,95.439,540.631,538.954,0.0
54103.0,STARLINK-5200,PAYLOAD,2023-11-08 19:32:50,15.08807838,0.0001506,53.2162,178.1221,97.2,262.9163,0.00029144,4.349e-05,0.0,0 STARLINK-5200,1 54103U 22136BE  23312.81447294  .00004349  00000-0  29144-3 0  9990,2 54103  53.2162 178.1221 0001506  97.2000 262.9163 15.08807838 59131,6917.979,95.44,540.886,538.802,0.0
54103.0,STARLINK-5200,PAYLOAD,2023-11-08 22:43:37,15.08801364,0.0001426,53.2166,177.5278,92.7241,267.3914,0.00035917,5.427e-05,0.0,0 STARLINK-5200,1 54103U 22136BE  23312.94695951  .00005427  00000-0  35917-3 0  9992,2 54103  53.2166 177.5278 0001426  92.7241 267.3914 15.08801364 58688,6917.998,95.44,540.85,538.877,0.0
54103.0,STARLINK-5200,PAYLOAD,2023-11-09 00:19:00,15.0880264,0.0001438,53.2166,177.2304,95.1058,265.0099,0.00034765,5.244e-05,0.0,0 STARLINK-5200,1 54103U 22136BE  23313.01320031  .00005244  00000-0  34765-3 0  9992,2 54103  53.2166 177.2304 0001438  95.1058 265.0099 15.08802640 58699,6917.995,95.44,540.854,538.865,0.0
54103.0,STARLINK-5200,PAYLOAD,2023-11-09 19:23:36,15.08844221,9.77e-05,53.2156,173.6687,104.635,255.4751,0.0003097,4.645e-05,0.0,0 STARLINK-5200,1 54103U 22136BE  23313.80806492  .00004645  00000-0  30970-3 0  9997,2 54103  53.2156 173.6687 0000977 104.6350 255.4751 15.08844221 59285,6917.867,95.437,540.408,539.057,0.0
54103.0,STARLINK-5200,PAYLOAD,2023-11-09 22:34:22,15.0885627,0.0001351,53.2163,173.0673,101.699,258.4154,0.00038655,5.872e-05,0.0,0 STARLINK-5200,1 54103U 22136BE  23313.94053867  .00005872  00000-0  38655-3 0  9993,2 54103  53.2163 173.0673 0001351 101.6990 258.4154 15.08856270 58833,6917.831,95.437,540.63,538.761,0.0
54103.0,STARLINK-5200,PAYLOAD,2023-11-10 00:09:45,15.08861117,0.0001401,53.2166,172.768,112.7776,247.3365,0.0004355,6.654e-05,0.0,0 STARLINK-5200,1 54103U 22136BE  23314.00677510  .00006654  00000-0  43550-3 0  9997,2 54103  53.2166 172.7680 0001401 112.7776 247.3365 15.08861117 59312,6917.816,95.436,540.65,538.712,0.0
54103.0,STARLINK-5200,PAYLOAD,2023-11-10 08:06:41,15.08857021,0.0001446,53.2161,171.2792,106.7932,253.3219,0.00034014,5.132e-05,0.0,0 STARLINK-5200,1 54103U 22136BE  23314.33797652  .00005132  00000-0  34014-3 0  9998,2 54103  53.2161 171.2792 0001446 106.7932 253.3219 15.08857021 59360,6917.828,95.436,540.694,538.693,0.0
54103.0,STARLINK-5200,PAYLOAD,2023-11-10 20:49:45,15.0885698,0.0001596,53.216,168.9009,110.74,249.3763,0.00048059,7.372e-05,0.0,0 STARLINK-5200,1 54103U 22136BE  23314.86788911  .00007372  00000-0  48059-3 0  9996,2 54103  53.2160 168.9009 0001596 110.7400 249.3763 15.08856980 58972,6917.828,95.436,540.798,538.589,0.0
54103.0,STARLINK-5200,PAYLOAD,2023-11-11 00:00:31,15.08857806,0.0001577,53.2161,168.3065,104.1798,255.937,0.00042614,6.504e-05,0.0,0 STARLINK-5200,1 54103U 22136BE  23315.00036641  .00006504  00000-0  42614-3 0  9996,2 54103  53.2161 168.3065 0001577 104.1798 255.9370 15.08857806 58992,6917.826,95.436,540.782,538.6,0.0
